0 METEOSAT 1 AKM
1 13907U 77108D   13283.54038671 -.00000147  00000-0  00000+0 0  4676
2 13907 015.3526 335.7701 0082300 018.1895 342.1112 00.97803387 67322
0 METEOSAT 1 AKM
1 13907U 77108D   13283.54041531  .00000000  00000-0  10000-3 0  4688
2 13907 015.3531 335.7694 0082865 017.9735 342.3313 00.97798956 67325
0 METEOSAT 1 AKM
1 13907U 77108D   13287.63010112 -.00000065  00000-0  00000+0 0  4680
2 13907 015.3496 335.7279 0082091 018.2425 342.0476 00.97801741 67363
0 METEOSAT 1 AKM
1 13907U 77108D   13287.63011263 -.00000065  00000-0  00000+0 0  4699
2 13907 015.3497 335.7279 0082130 018.0199 342.2690 00.97801718 67368
0 METEOSAT 1 AKM
1 13907U 77108D   13294.78713333 -.00000143  00000-0  00000+0 0  4709
2 13907 015.3447 335.6542 0082109 018.1820 342.0959 00.97803463 67436
